STARLINK-36421          
1 67464U 26008V   26025.25001157 -.01449153  59851-3 -41171-2 0  9995
2 67464  43.0016  97.4617 0001286 272.8061 311.4296 15.92494457  2817
STARLINK-36437          
1 67465U 26008W   26025.25001157 -.01457222  60488-3 -41313-2 0  9998
2 67465  43.0015  97.4544 0001278 270.0697 316.8775 15.92536318  2816
STARLINK-36520          
1 67466U 26008X   26025.25001157 -.01470060  61497-3 -41581-2 0  9992
2 67466  43.0014  97.4466 0001305 267.9945 322.0010 15.92582197  2818
STARLINK-36425          
1 67467U 26008Y   26025.25001157 -.01488314  62934-3 -42002-2 0  9990
2 67467  43.0014  97.4397 0001216 271.8486 320.8920 15.92628375  2812
STARLINK-36414          
1 67468U 26008Z   26025.25001157 -.01349812  53551-3 -34601-2 0  9991
2 67468  43.0016  97.3389 0001493 269.9031   2.5986 15.94420867  2810
STARLINK-36441          
1 67469U 26008AA  26025.25001157 -.01450399  61234-3 -36749-2 0  9997
2 67469  43.0016  97.2935 0001402 271.4233  18.8591 15.94653716  2812
STARLINK-36454          
1 67470U 26008AB  26025.25001157 -.01495240  64817-3 -37703-2 0  9994
2 67470  43.0015  97.2743 0001454 271.6339  26.1112 15.94750254  2812
STARLINK-36334          
1 67471U 26008AC  26025.25001157 -.01396638  57067-3 -35604-2 0  9993
2 67471  43.0015  97.3173 0001390 270.5372  10.3514 15.94531447  2817
STARLINK-36269          
1 67472U 26008AD  26025.25001157 -.01566067  70666-3 -39238-2 0  9996
2 67472  43.0013  97.2482 0001357 272.1952  35.7357 15.94879827  2838
STARLINK-36408          
1 67473U 26008AE  26025.25001157 -.01655827  78430-3 -41179-2 0  9994
2 67473  43.0015  97.2099 0001340 271.0448  52.1246 15.95031732  2831
ALSAT-3A                
1 67474U 26009A   26025.26529159  .00006326  00000+0  42629-3 0  9991
2 67474  97.1800  98.9939 0099213 187.6886 172.2826 15.02987660  1520
CZ-2C R/B               
1 67475U 26009B   26025.26167075  .00010808  00000+0  45914-3 0  9997
2 67475  97.4704  99.9912 0011325 221.7332 138.3042 15.23182798  1540
