CCSDS_OMM_VERS = 2.0
CREATION_DATE  = 
ORIGINATOR     = 

OBJECT_NAME    = STARLINK-36421
OBJECT_ID      = 2026-008V
CENTER_NAME    = EARTH
REF_FRAME      = TEME
TIME_SYSTEM    = UTC
MEAN_ELEMENT_THEORY = SGP/SGP4

EPOCH          = 2026-01-25T06:00:00.999648
MEAN_MOTION    = 15.92494457
ECCENTRICITY   = .00012865
INCLINATION    = 43.0016
RA_OF_ASC_NODE = 97.4617
ARG_OF_PERICENTER = 272.8061
MEAN_ANOMALY   = 311.4296

EPHEMERIS_TYPE = 0
CLASSIFICATION_TYPE = U
NORAD_CAT_ID   = 67464
ELEMENT_SET_NO = 999
REV_AT_EPOCH   = 281
BSTAR          = -.41171273E-2
MEAN_MOTION_DOT = -.1449153E-1
MEAN_MOTION_DDOT = .59850553E-3

CCSDS_OMM_VERS = 2.0
CREATION_DATE  = 
ORIGINATOR     = 

OBJECT_NAME    = STARLINK-36437
OBJECT_ID      = 2026-008W
CENTER_NAME    = EARTH
REF_FRAME      = TEME
TIME_SYSTEM    = UTC
MEAN_ELEMENT_THEORY = SGP/SGP4

EPOCH          = 2026-01-25T06:00:00.999648
MEAN_MOTION    = 15.92536318
ECCENTRICITY   = .0001278
INCLINATION    = 43.0015
RA_OF_ASC_NODE = 97.4544
ARG_OF_PERICENTER = 270.0697
MEAN_ANOMALY   = 316.8775

EPHEMERIS_TYPE = 0
CLASSIFICATION_TYPE = U
NORAD_CAT_ID   = 67465
ELEMENT_SET_NO = 999
REV_AT_EPOCH   = 281
BSTAR          = -.41312665E-2
MEAN_MOTION_DOT = -.1457222E-1
MEAN_MOTION_DDOT = .60487987E-3

CCSDS_OMM_VERS = 2.0
CREATION_DATE  = 
ORIGINATOR     = 

OBJECT_NAME    = STARLINK-36520
OBJECT_ID      = 2026-008X
CENTER_NAME    = EARTH
REF_FRAME      = TEME
TIME_SYSTEM    = UTC
MEAN_ELEMENT_THEORY = SGP/SGP4

EPOCH          = 2026-01-25T06:00:00.999648
MEAN_MOTION    = 15.92582197
ECCENTRICITY   = .00013053
INCLINATION    = 43.0014
RA_OF_ASC_NODE = 97.4466
ARG_OF_PERICENTER = 267.9945
MEAN_ANOMALY   = 322.0010

EPHEMERIS_TYPE = 0
CLASSIFICATION_TYPE = U
NORAD_CAT_ID   = 67466
ELEMENT_SET_NO = 999
REV_AT_EPOCH   = 281
BSTAR          = -.41580795E-2
MEAN_MOTION_DOT = -.147006E-1
MEAN_MOTION_DDOT = .61496762E-3

CCSDS_OMM_VERS = 2.0
CREATION_DATE  = 
ORIGINATOR     = 

OBJECT_NAME    = STARLINK-36425
OBJECT_ID      = 2026-008Y
CENTER_NAME    = EARTH
REF_FRAME      = TEME
TIME_SYSTEM    = UTC
MEAN_ELEMENT_THEORY = SGP/SGP4

EPOCH          = 2026-01-25T06:00:00.999648
MEAN_MOTION    = 15.92628375
ECCENTRICITY   = .00012165
INCLINATION    = 43.0014
RA_OF_ASC_NODE = 97.4397
ARG_OF_PERICENTER = 271.8486
MEAN_ANOMALY   = 320.8920

EPHEMERIS_TYPE = 0
CLASSIFICATION_TYPE = U
NORAD_CAT_ID   = 67467
ELEMENT_SET_NO = 999
REV_AT_EPOCH   = 281
BSTAR          = -.42002063E-2
MEAN_MOTION_DOT = -.1488314E-1
MEAN_MOTION_DDOT = .62933703E-3

CCSDS_OMM_VERS = 2.0
CREATION_DATE  = 
ORIGINATOR     = 

OBJECT_NAME    = STARLINK-36414
OBJECT_ID      = 2026-008Z
CENTER_NAME    = EARTH
REF_FRAME      = TEME
TIME_SYSTEM    = UTC
MEAN_ELEMENT_THEORY = SGP/SGP4

EPOCH          = 2026-01-25T06:00:00.999648
MEAN_MOTION    = 15.94420867
ECCENTRICITY   = .00014934
INCLINATION    = 43.0016
RA_OF_ASC_NODE = 97.3389
ARG_OF_PERICENTER = 269.9031
MEAN_ANOMALY   = 2.5986

EPHEMERIS_TYPE = 0
CLASSIFICATION_TYPE = U
NORAD_CAT_ID   = 67468
ELEMENT_SET_NO = 999
REV_AT_EPOCH   = 281
BSTAR          = -.34600543E-2
MEAN_MOTION_DOT = -.1349812E-1
MEAN_MOTION_DDOT = .5355098E-3

CCSDS_OMM_VERS = 2.0
CREATION_DATE  = 
ORIGINATOR     = 

OBJECT_NAME    = STARLINK-36441
OBJECT_ID      = 2026-008AA
CENTER_NAME    = EARTH
REF_FRAME      = TEME
TIME_SYSTEM    = UTC
MEAN_ELEMENT_THEORY = SGP/SGP4

EPOCH          = 2026-01-25T06:00:00.999648
MEAN_MOTION    = 15.94653716
ECCENTRICITY   = .00014023
INCLINATION    = 43.0016
RA_OF_ASC_NODE = 97.2935
ARG_OF_PERICENTER = 271.4233
MEAN_ANOMALY   = 18.8591

EPHEMERIS_TYPE = 0
CLASSIFICATION_TYPE = U
NORAD_CAT_ID   = 67469
ELEMENT_SET_NO = 999
REV_AT_EPOCH   = 281
BSTAR          = -.36749394E-2
MEAN_MOTION_DOT = -.1450399E-1
MEAN_MOTION_DDOT = .61234498E-3

CCSDS_OMM_VERS = 2.0
CREATION_DATE  = 
ORIGINATOR     = 

OBJECT_NAME    = STARLINK-36454
OBJECT_ID      = 2026-008AB
CENTER_NAME    = EARTH
REF_FRAME      = TEME
TIME_SYSTEM    = UTC
MEAN_ELEMENT_THEORY = SGP/SGP4

EPOCH          = 2026-01-25T06:00:00.999648
MEAN_MOTION    = 15.94750254
ECCENTRICITY   = .00014546
INCLINATION    = 43.0015
RA_OF_ASC_NODE = 97.2743
ARG_OF_PERICENTER = 271.6339
MEAN_ANOMALY   = 26.1112

EPHEMERIS_TYPE = 0
CLASSIFICATION_TYPE = U
NORAD_CAT_ID   = 67470
ELEMENT_SET_NO = 999
REV_AT_EPOCH   = 281
BSTAR          = -.37703362E-2
MEAN_MOTION_DOT = -.149524E-1
MEAN_MOTION_DDOT = .64817468E-3

CCSDS_OMM_VERS = 2.0
CREATION_DATE  = 
ORIGINATOR     = 

OBJECT_NAME    = STARLINK-36334
OBJECT_ID      = 2026-008AC
CENTER_NAME    = EARTH
REF_FRAME      = TEME
TIME_SYSTEM    = UTC
MEAN_ELEMENT_THEORY = SGP/SGP4

EPOCH          = 2026-01-25T06:00:00.999648
MEAN_MOTION    = 15.94531447
ECCENTRICITY   = .00013909
INCLINATION    = 43.0015
RA_OF_ASC_NODE = 97.3173
ARG_OF_PERICENTER = 270.5372
MEAN_ANOMALY   = 10.3514

EPHEMERIS_TYPE = 0
CLASSIFICATION_TYPE = U
NORAD_CAT_ID   = 67471
ELEMENT_SET_NO = 999
REV_AT_EPOCH   = 281
BSTAR          = -.35604091E-2
MEAN_MOTION_DOT = -.1396638E-1
MEAN_MOTION_DDOT = .57066755E-3

CCSDS_OMM_VERS = 2.0
CREATION_DATE  = 
ORIGINATOR     = 

OBJECT_NAME    = STARLINK-36269
OBJECT_ID      = 2026-008AD
CENTER_NAME    = EARTH
REF_FRAME      = TEME
TIME_SYSTEM    = UTC
MEAN_ELEMENT_THEORY = SGP/SGP4

EPOCH          = 2026-01-25T06:00:00.999648
MEAN_MOTION    = 15.94879827
ECCENTRICITY   = .00013574
INCLINATION    = 43.0013
RA_OF_ASC_NODE = 97.2482
ARG_OF_PERICENTER = 272.1952
MEAN_ANOMALY   = 35.7357

EPHEMERIS_TYPE = 0
CLASSIFICATION_TYPE = U
NORAD_CAT_ID   = 67472
ELEMENT_SET_NO = 999
REV_AT_EPOCH   = 283
BSTAR          = -.3923834E-2
MEAN_MOTION_DOT = -.1566067E-1
MEAN_MOTION_DDOT = .70665897E-3

CCSDS_OMM_VERS = 2.0
CREATION_DATE  = 
ORIGINATOR     = 

OBJECT_NAME    = STARLINK-36408
OBJECT_ID      = 2026-008AE
CENTER_NAME    = EARTH
REF_FRAME      = TEME
TIME_SYSTEM    = UTC
MEAN_ELEMENT_THEORY = SGP/SGP4

EPOCH          = 2026-01-25T06:00:00.999648
MEAN_MOTION    = 15.95031732
ECCENTRICITY   = .00013407
INCLINATION    = 43.0015
RA_OF_ASC_NODE = 97.2099
ARG_OF_PERICENTER = 271.0448
MEAN_ANOMALY   = 52.1246

EPHEMERIS_TYPE = 0
CLASSIFICATION_TYPE = U
NORAD_CAT_ID   = 67473
ELEMENT_SET_NO = 999
REV_AT_EPOCH   = 283
BSTAR          = -.41178726E-2
MEAN_MOTION_DOT = -.1655827E-1
MEAN_MOTION_DDOT = .78430227E-3

CCSDS_OMM_VERS = 2.0
CREATION_DATE  = 
ORIGINATOR     = 

OBJECT_NAME    = ALSAT-3A
OBJECT_ID      = 2026-009A
CENTER_NAME    = EARTH
REF_FRAME      = TEME
TIME_SYSTEM    = UTC
MEAN_ELEMENT_THEORY = SGP/SGP4

EPOCH          = 2026-01-25T06:22:01.193376
MEAN_MOTION    = 15.02987660
ECCENTRICITY   = .00992138
INCLINATION    = 97.1800
RA_OF_ASC_NODE = 98.9939
ARG_OF_PERICENTER = 187.6886
MEAN_ANOMALY   = 172.2826

EPHEMERIS_TYPE = 0
CLASSIFICATION_TYPE = U
NORAD_CAT_ID   = 67474
ELEMENT_SET_NO = 999
REV_AT_EPOCH   = 152
BSTAR          = .42628887E-3
MEAN_MOTION_DOT = .6326E-4
MEAN_MOTION_DDOT = 0

CCSDS_OMM_VERS = 2.0
CREATION_DATE  = 
ORIGINATOR     = 

OBJECT_NAME    = CZ-2C R/B
OBJECT_ID      = 2026-009B
CENTER_NAME    = EARTH
REF_FRAME      = TEME
TIME_SYSTEM    = UTC
MEAN_ELEMENT_THEORY = SGP/SGP4

EPOCH          = 2026-01-25T06:16:48.352800
MEAN_MOTION    = 15.23182798
ECCENTRICITY   = .00113252
INCLINATION    = 97.4704
RA_OF_ASC_NODE = 99.9912
ARG_OF_PERICENTER = 221.7332
MEAN_ANOMALY   = 138.3042

EPHEMERIS_TYPE = 0
CLASSIFICATION_TYPE = U
NORAD_CAT_ID   = 67475
ELEMENT_SET_NO = 999
REV_AT_EPOCH   = 154
BSTAR          = .4591376E-3
MEAN_MOTION_DOT = .10808E-3
MEAN_MOTION_DDOT = 0

